GALAXY 25 (G-25)        
1 24812U 97026A   22290.84303498 -.00000001  00000+0  00000+0 0  9995
2 24812   3.9915  82.3886 0003820 157.0669 156.4782  1.00271271 92957
INTELSAT 5 (IS-5)       
1 24916U 97046A   22291.53429359 -.00000057  00000+0  00000+0 0  9995
2 24916   7.4883  60.1758 0005415 159.7631 165.5802  1.00270706 92201
GALAXY 11 (G-11)        
1 26038U 99071A   22291.46153352 -.00000160  00000+0  00000+0 0  9996
2 26038   3.3227  86.0188 0002131 199.7374 174.2451  1.00271773 83661
INTELSAT 9 (IS-9)       
1 26451U 00043A   22290.82090049 -.00000283  00000+0  00000+0 0  9994
2 26451   7.4718  60.3595 0003526 162.2491  49.2525  1.00271951 30721
INTELSAT 1R (IS-1R)     
1 26608U 00072A   22290.76090975 -.00000135  00000+0  00000+0 0  9997
2 26608   4.7336  79.5678 0000691 232.0794 145.6522  1.00271265 27909
INTELSAT 10 (IS-10)     
1 26766U 01019A   22291.15685537  .00000038  00000+0  00000+0 0  9993
2 26766   5.8655  72.2882 0003648 149.8989  38.7305  1.00272056 78516
INTELSAT 901 (IS-901)   
1 26824U 01024A   22291.11595838 -.00000201  00000+0  00000+0 0  9997
2 26824   0.0447  70.1330 0001320 160.9793 169.7770  1.00271513 78174
INTELSAT 902 (IS-902)   
1 26900U 01039A   22291.12549491 -.00000280  00000+0  00000+0 0  9990
2 26900   2.7099  87.6013 0002831 135.1999 158.8850  1.00269525 77359
INTELSAT 904 (IS-904)   
1 27380U 02007A   22290.75684501 -.00000211  00000+0  00000+0 0  9993
2 27380   3.5390  84.5989 0002889 123.0634  61.5651  1.00271567 38342
DIRECTV 5 (TEMPO 1)     
1 27426U 02023A   22291.09947751 -.00000055  00000+0  00000+0 0  9995
2 27426   1.4344  91.6541 0003447 125.5439  95.1010  1.00272241 74884
INTELSAT 905 (IS-905)   
1 27438U 02027A   22290.75780421 -.00000182  00000+0  00000+0 0  9994
2 27438   3.3610  85.3238 0002602 117.6025  71.6459  1.00273129 37940
GALAXY 3C (G-3C)        
1 27445U 02030A   22290.60023309 -.00000151  00000+0  00000+0 0  9991
2 27445   0.2856  89.4433 0001044 209.9730 207.9005  1.00271348 33077
INTELSAT 906 (IS-906)   
1 27513U 02041A   22290.84240499  .00000016  00000+0  00000+0 0  9995
2 27513   2.3783  89.0339 0003164 116.8675 187.8493  1.00271788 73603
GALAXY 12 (G-12)        
1 27715U 03013B   22291.22165977  .00000060  00000+0  00000+0 0  9998
2 27715   3.5729  84.2414 0002267 144.9955 108.2824  1.00273655 71593
GALAXY 23 (G-23)        
1 27854U 03034A   22290.67896535  .00000014  00000+0  00000+0 0  9993
2 27854   0.0177 229.8846 0002934 334.7923 304.9411  1.00271239 70320
GALAXY 13 (HORIZONS-1)  
1 27954U 03044A   22291.43452049  .00000049  00000+0  00000+0 0  9996
2 27954   0.0240 129.5849 0001729  38.1512 248.5828  1.00271193 69749
INTELSAT 10-02          
1 28358U 04022A   22290.84424309 -.00000010  00000+0  00000+0 0  9993
2 28358   0.0118 204.7300 0001412  47.9546  76.5529  1.00270994 67129
XM-3 (RHYTHM)           
1 28626U 05008A   22291.46310314 -.00000205  00000+0  00000+0 0  9991
2 28626   0.0360  72.0430 0001562 111.1908 285.3299  1.00271277 64652
DIRECTV 8               
1 28659U 05019A   22290.67896535  .00000002  00000+0  00000+0 0  9999
2 28659   0.0170 211.2649 0002984  13.8650 286.4308  1.00272409 63657
GALAXY 28 (G-28)        
1 28702U 05022A   22290.61160755 -.00000185  00000+0  00000+0 0  9997
2 28702   0.0228 291.0913 0001941 313.2081 273.0011  1.00271502 38565
GALAXY 14 (G-14)        
1 28790U 05030A   22291.12799205  .00000157  00000+0  00000+0 0  9996
2 28790   1.5675  90.8237 0001886 113.1621 261.6043  1.00271839 62886
GALAXY 15 (G-15)        
1 28884U 05041A   22290.68452257  .00000063  00000+0  00000+0 0  9991
2 28884   0.1216  89.1894 0003065 142.8126 270.3900  1.00294295 62190
SPACEWAY 2              
1 28903U 05046B   22291.21808249  .00000106  00000+0  00000+0 0  9992
2 28903   2.1809  86.6920 0000736 253.1464 346.4704  1.00272634 62074
GALAXY 16 (G-16)        
1 29236U 06023A   22291.37616272 -.00000126  00000+0  00000+0 0  9991
2 29236   0.0264 258.0250 0002771 314.5876 210.6698  1.00269798 59850
DIRECTV 9S              
1 29494U 06043A   22290.59901229 -.00000112  00000+0  00000+0 0  9996
2 29494   0.0146 229.4676 0003139 339.8323 291.2400  1.00270803 37968
XM-4 (BLUES)            
1 29520U 06049A   22290.60223872 -.00000205  00000+0  00000+0 0  9998
2 29520   0.0484 326.7230 0001784 352.1486 198.9097  1.00270572 38051
GALAXY 17 (G-17)        
1 31307U 07016B   22291.10331434 -.00000173  00000+0  00000+0 0  9993
2 31307   0.0096 240.4163 0003112 346.8760 105.4803  1.00268504 56662
DIRECTV 10              
1 31862U 07032A   22291.23832196 -.00000102  00000+0  00000+0 0  9994
2 31862   0.0033  68.3974 0000273 179.4666 121.8603  1.00270442 55995
SPACEWAY 3              
1 32018U 07036A   22291.51299437 -.00000150  00000+0  00000+0 0  9991
2 32018   0.5378  90.6166 0000375  77.8814 308.2264  1.00271994 55713
INTELSAT 11 (IS-11)     
1 32253U 07044B   22290.79632902 -.00000268  00000+0  00000+0 0  9998
2 32253   0.0955  90.4912 0001914 134.3027  45.1869  1.00270402 55106
HORIZONS-2              
1 32388U 07063B   22291.46537035 -.00000252  00000+0  00000+0 0  9997
2 32388   0.0174 245.0065 0002630 352.7382 242.9414  1.00271390 54469
DIRECTV 11              
1 32729U 08013A   22290.59944830 -.00000125  00000+0  00000+0 0  9999
2 32729   0.0040  66.9388 0000110  98.0992 337.6800  1.00272294 32175
GALAXY 18 (G-18)        
1 32951U 08024A   22290.67896535  .00000026  00000+0  00000+0 0  9994
2 32951   0.0160 245.4844 0003114 325.3980 296.7129  1.00269509 32439
INTELSAT 25 (IS-25)     
1 33153U 08034A   22291.42341231 -.00000222  00000+0  00000+0 0  9991
2 33153   0.0192 229.4581 0003055 336.0761 302.3103  1.00272453 52226
GALAXY 19 (G-19)        
1 33376U 08045A   22290.59988428 -.00000138  00000+0  00000+0 0  9998
2 33376   0.0165 184.2663 0003091  34.4650 286.3177  1.00271628 51480
FM-5                    
1 35493U 09034A   22290.61160755 -.00000200  00000+0  00000+0 0  9997
2 35493   0.0175 270.6206 0000456 183.0405  66.5098  1.00271408 33225
INTELSAT 14 (IS-14)     
1 36097U 09064A   22290.79632902 -.00000273  00000+0  00000+0 0  9998
2 36097   0.0178 237.1938 0002593 338.8003  51.9880  1.00271208 47272
INTELSAT 15 (IS-15)     
1 36106U 09067A   22291.40535498 -.00000184  00000+0  00000+0 0  9994
2 36106   0.0329  48.9410 0002395 166.6675  42.3615  1.00271402 47182
DIRECTV 12              
1 36131U 09075A   22290.39146573 -.00000103  00000+0  00000+0 0  9991
2 36131   0.0106 208.6180 0000327  62.6616 152.7990  1.00270914 33134
INTELSAT 16 (IS-16)     
1 36397U 10006A   22291.10619194 -.00000244  00000+0  00000+0 0  9991
2 36397   0.0148 109.0116 0002444 112.8066 126.8081  1.00271104 46304
XM-5                    
1 37185U 10053A   22290.51855083 -.00000023  00000+0  00000+0 0  9997
2 37185   0.0141 265.8332 0000792 113.8017  77.8778  1.00271306 44024
INTELSAT 17 (IS-17)     
1 37238U 10065B   22290.84312735 -.00000002  00000+0  00000+0 0  9994
2 37238   0.0249 236.3736 0002469 328.5252 190.9698  1.00273833 39818
INTELSAT NEW DAWN       
1 37392U 11016A   22291.12790484  .00000157  00000+0  00000+0 0  9995
2 37392   0.0135 169.1662 0001154  66.5110 229.8005  1.00273885 42103
INTELSAT 18 (IS-18)     
1 37834U 11056A   22291.15729137  .00000054  00000+0  00000+0 0  9996
2 37834   0.0362 358.5254 0001913 210.3432  54.4157  1.00273903 40420
INTELSAT 22 (IS-22)     
1 38098U 12011A   22290.84385039 -.00000058  00000+0  00000+0 0  9990
2 38098   0.0120 236.2139 0002752 327.7479 198.2584  1.00269085 38395
INTELSAT 19 (IS-19)     
1 38356U 12030A   22291.53303763 -.00000055  00000+0  00000+0 0  9996
2 38356   0.0180 246.7145 0003059 323.5866 174.6101  1.00271481 38101
INTELSAT 20 (IS-20)     
1 38740U 12043A   22290.64446343 -.00000024  00000+0  00000+0 0  9996
2 38740   0.0123 204.6777 0002983 337.9053 144.0626  1.00270865 37322
INTELSAT 21 (IS-21)     
1 38749U 12045A   22290.81438260 -.00000284  00000+0  00000+0 0  9993
2 38749   0.0134 182.4268 0002529  36.6969  42.3633  1.00270467 37210
INTELSAT 23 (IS-23)     
1 38867U 12057A   22291.12549491 -.00000284  00000+0  00000+0 0  9991
2 38867   0.0295 264.4451 0001110 235.3448 239.0120  1.00264133 36699
FM-6                    
1 39360U 13058A   22291.23085380 -.00000016  00000+0  00000+0 0  9999
2 39360   0.0335 267.3967 0000501 195.4085 250.8618  1.00270042 32935
INTELSAT 30 (IS-30)     
1 40271U 14062A   22289.52415762 -.00000151  00000+0  00000+0 0  9998
2 40271   0.0147 247.5401 0002151 196.0725  35.0670  1.00271441 29338
DIRECTV 14              
1 40333U 14078B   22289.49230192 -.00000125  00000+0  00000+0 0  9993
2 40333   0.0225 103.8327 0000355 180.2576 178.9091  1.00272804 28638
DIRECTV 15              
1 40663U 15026A   22291.02919403 -.00000102  00000+0  00000+0 0  9999
2 40663   0.0139 167.3164 0000156 232.4825 254.3778  1.00269673 27111
SKY MEXICO-1            
1 40664U 15026B   22290.84216605 -.00000234  00000+0  00000+0 0  9999
2 40664   0.0141 277.2804 0002947 313.8963  19.5796  1.00271588 27034
INTELSAT 34 (IS-34)     
1 40874U 15039A   22291.11037756 -.00000285  00000+0  00000+0 0  9991
2 40874   0.0192 230.1854 0000042 350.9009 149.7740  1.00271398 26205
INTELSAT 31 (IS-31)     
1 41581U 16035A   22289.49354889 -.00000151  00000+0  00000+0 0  9993
2 41581   0.0171 240.0412 0001561 346.3168 241.2722  1.00271444 23252
INTELSAT 36 (IS-36)     
1 41747U 16053A   22291.13505528 -.00000023  00000+0  00000+0 0  9997
2 41747   0.0100 228.8989 0001729 132.2111 142.5992  1.00269060 22529
INTELSAT 33E (IS-33E)   
1 41748U 16053B   22291.19633008  .00000050  00000+0  00000+0 0  9998
2 41748   0.0114 174.4384 0001926  39.5828 303.3449  1.00271047 22806
INTELSAT 32E (IS-32E)   
1 41945U 17007B   22290.99979883 -.00000268  00000+0  00000+0 0  9990
2 41945   0.0164 209.8656 0000117 205.4053 287.9538  1.00267578 20831
INTELSAT 35E (IS-35E)   
1 42818U 17041A   22290.75579860 -.00000237  00000+0  00000+0 0  9999
2 42818   0.0168 193.7229 0002258  39.0236  31.1034  1.00271590 19392
INTELSAT 37E (IS-37E)   
1 42950U 17059A   22291.12757331 -.00000140  00000+0  00000+0 0  9991
2 42950   0.0134 253.4443 0003316 324.9922 196.1114  1.00271693 18628
AZERSPACE 2 (IS-38)     
1 43632U 18074A   22291.48908885  .00000137  00000+0  00000+0 0  9993
2 43632   0.0174 196.9508 0001533  25.6751  25.5343  1.00271642 15021
HORIZONS-3E             
1 43633U 18074B   22291.15511137 -.00000030  00000+0  00000+0 0  9991
2 43633   0.0185  50.4585 0001688 244.5869 316.4230  1.00271104 14902
AT&T T-16               
1 44333U 19034A   22291.52692304 -.00000114  00000+0  00000+0 0  9996
2 44333   0.0543  87.5729 0000520 146.3762 241.9024  1.00271814 12217
INTELSAT 39 (IS-39)     
1 44476U 19049B   22290.64430334  .00000033  00000+0  00000+0 0  9994
2 44476   0.0182 234.2328 0000357 130.4266 315.3829  1.00271328 11714
GALAXY 30 (G-30)        
1 46114U 20056C   22291.22559816  .00000038  00000+0  00000+0 0  9992
2 46114   0.0158 205.7150 0002904   9.3263 127.8658  1.00271004  7986
